{
  "norad_id": 59515,
  "name": "STARLINK-31669",
  "history": [
    {
      "epoch": "2026-03-28T16:27:35.776800Z",
      "apogee_km": 483.8143292790983,
      "perigee_km": 482.254098945009,
      "latitude_deg": 3.2210587424931965e-05,
      "longitude_deg": 137.49724287482417,
      "height_km": 482.85594326547135,
      "semi_major_axis_km": 6861.171214112053,
      "eccentricity": 0.0001137,
      "inclination_deg": 42.9997,
      "raan_deg": 210.499,
      "arg_perigee_deg": 266.6714,
      "mean_anomaly_deg": 93.4008,
      "mean_motion_rev_day": 15.2758497
    }
  ]
}